         0.0000000       15.4905778     6797.6201668        0.0001278       51.6452000        3.0759000      115.4489000       51.6452000
      1440.0000000       15.4906142     6797.6095012        0.0001278       51.6452000      180.3025404      110.4989053       51.6452000
      2880.0000000       15.4906507     6797.5988343        0.0001278       51.6452000      357.5154375      105.5488835       51.6452000
      4320.0000000       15.4906872     6797.5881660        0.0001277       51.6452000      174.7683063      100.5988345       51.6452000
      5760.0000000       15.4907236     6797.5774964        0.0001277       51.6452000      352.0075473       95.6487584       51.6452000
      7200.0000000       15.4907601     6797.5668255        0.0001277       51.6452000      169.2865257       90.6986550       51.6452000
      8640.0000000       15.4907966     6797.5561533        0.0001277       51.6452000      346.5522421       85.7485246       51.6452000
     10080.0000000       15.4908331     6797.5454798        0.0001276       51.6452000      163.8572128       80.7983669       51.6452000
     11520.0000000       15.4908696     6797.5348049        0.0001276       51.6452000      341.1495343       75.8481821       51.6452000
     12960.0000000       15.4909061     6797.5241287        0.0001276       51.6452000      158.4803825       70.8979701       51.6452000
     14400.0000000       15.4909426     6797.5134512        0.0001276       51.6452000      335.7994357       65.9477309       51.6452000
     15840.0000000       15.4909791     6797.5027723        0.0001276       51.6452000      153.1560502       60.9974646       51.6452000
     17280.0000000       15.4910156     6797.4920921        0.0001275       51.6452000      330.5019573       56.0471711       51.6452000
     18720.0000000       15.4910521     6797.4814106        0.0001275       51.6452000      147.8842319       51.0968504       51.6452000
     20160.0000000       15.4910886     6797.4707277        0.0001275       51.6452000      325.2571098       46.1465026       51.6452000
     21600.0000000       15.4911251     6797.4600436        0.0001275       51.6452000      142.6649441       41.1961276       51.6452000
     23040.0000000       15.4911617     6797.4493581        0.0001275       51.6452000      320.0649034       36.2457255       51.6452000
     24480.0000000       15.4911982     6797.4386712        0.0001274       51.6452000      137.4982037       31.2952961       51.6452000
     25920.0000000       15.4912347     6797.4279831        0.0001274       51.6452000      314.9253477       26.3448396       51.6452000
     27360.0000000       15.4912713     6797.4172936        0.0001274       51.6452000      132.3840283       21.3943560       51.6452000
     28800.0000000       15.4913078     6797.4066028        0.0001274       51.6452000      309.8384520       16.4438451       51.6452000
     30240.0000000       15.4913444     6797.3959106        0.0001273       51.6452000      127.3224358       11.4933071       51.6452000
     31680.0000000       15.4913809     6797.3852171        0.0001273       51.6452000      304.8042249        6.5427420       51.6452000
     33120.0000000       15.4914175     6797.3745223        0.0001273       51.6452000      122.3134443        1.5921497       51.6452000
     33796.9037088       15.4914347     6797.3694945        0.0001273       51.6452000      224.1475698      359.2650053       51.6452000


 1 25544U 98067A   20361.85583178 +.00001361  00000 0  32592-4 0 0999                                                                                                                                                                                                                                                                                                                                                                                                                                                            
 2 25544  51.6451 115.1428 0001280 157.4166 347.8518 15.4922982326188                                                                                                                                                                                                                                                                                                                                                                                                                                                            

         0.0000000       15.4905795     6797.6196481        0.0001280       51.6451000      347.8518000      115.1428000       51.6451000
      1440.0000000       15.4906158     6797.6090364        0.0001280       51.6451000      165.0787031      110.1927931       51.6451000
      2880.0000000       15.4906521     6797.5984235        0.0001280       51.6451000      342.2928739      105.2427591       51.6451000
      4320.0000000       15.4906884     6797.5878093        0.0001279       51.6451000      159.5455346      100.2926982       51.6451000
      5760.0000000       15.4907247     6797.5771937        0.0001279       51.6451000      336.7862508       95.3426102       51.6451000
      7200.0000000       15.4907610     6797.5665769        0.0001279       51.6451000      154.0645576       90.3924951       51.6451000
      8640.0000000       15.4907973     6797.5559587        0.0001279       51.6451000      331.3319418       85.4423531       51.6451000
     10080.0000000       15.4908336     6797.5453392        0.0001278       51.6451000      148.6357879       80.4921840       51.6451000
     11520.0000000       15.4908699     6797.5347184        0.0001278       51.6451000      325.9299576       75.5419878       51.6451000
     12960.0000000       15.4909062     6797.5240963        0.0001278       51.6451000      143.2592416       70.5917647       51.6451000
     14400.0000000       15.4909425     6797.5134729        0.0001278       51.6451000      320.5803083       65.6415145       51.6451000
     15840.0000000       15.4909788     6797.5028481        0.0001277       51.6451000      137.9349355       60.6912373       51.6451000
     17280.0000000       15.4910151     6797.4922221        0.0001277       51.6451000      315.2830036       55.7409331       51.6451000
     18720.0000000       15.4910515     6797.4815947        0.0001277       51.6451000      132.6628867       50.7906018       51.6451000
     20160.0000000       15.4910878     6797.4709660        0.0001277       51.6451000      310.0380526       45.8402435       51.6451000
     21600.0000000       15.4911241     6797.4603360        0.0001277       51.6451000      127.4431128       40.8898582       51.6451000
     23040.0000000       15.4911605     6797.4497047        0.0001277       51.6451000      304.8454642       35.9394458       51.6451000
     24480.0000000       15.4911968     6797.4390721        0.0001276       51.6451000      122.2756317       30.9890064       51.6451000
     25920.0000000       15.4912332     6797.4284381        0.0001276       51.6451000      299.7052468       26.0385400       51.6451000
     27360.0000000       15.4912695     6797.4178028        0.0001276       51.6451000      117.1604620       21.0880465       51.6451000
     28800.0000000       15.4913059     6797.4071662        0.0001276       51.6451000      294.6174084       16.1375261       51.6451000
     30240.0000000       15.4913423     6797.3965283        0.0001275       51.6451000      112.0976221       11.1869786       51.6451000
     31680.0000000       15.4913786     6797.3858891        0.0001275       51.6451000      289.5819570        6.2364040       51.6451000
     33120.0000000       15.4914150     6797.3752486        0.0001275       51.6451000      107.0871311        1.2858024       51.6451000
     33707.8641888       15.4914299     6797.3709043        0.0001275       51.6451000      224.0480957      359.2647659       51.6451000


 1 25544U 98067A   20362.23098030 +.00001375  00000 0  32837-4 0 0999                                                                                                                                                                                                                                                                                                                                                                                                                                                            
 2 25544  51.6454 113.2871 0001303 160.4832 278.4547 15.4923116026194                                                                                                                                                                                                                                                                                                                                                                                                                                                            

